[{"OBJECT_NAME":"OBJECT B","OBJECT_ID":"2024-203B","EPOCH":"2026-03-09T23:52:52.928256","MEAN_MOTION":15.27506959,"ECCENTRICITY":0.00103904,"INCLINATION":97.4268,"RA_OF_ASC_NODE":139.5887,"ARG_OF_PERICENTER":321.1475,"MEAN_ANOMALY":38.9016,"EPHEMERIS_TYPE":0,"CLASSIFICATION_TYPE":"U","NORAD_CAT_ID":61870,"ELEMENT_SET_NO":999,"REV_AT_EPOCH":7381,"BSTAR":0.00063263842,"MEAN_MOTION_DOT":0.00016997,"MEAN_MOTION_DDOT":0},{"OBJECT_NAME":"STARLINK-35565","OBJECT_ID":"2025-278N","EPOCH":"2026-03-09T03:36:43.619040","MEAN_MOTION":15.27563931,"ECCENTRICITY":0.00010759,"INCLINATION":42.9962,"RA_OF_ASC_NODE":117.6695,"ARG_OF_PERICENTER":244.795,"MEAN_ANOMALY":115.279,"EPHEMERIS_TYPE":0,"CLASSIFICATION_TYPE":"U","NORAD_CAT_ID":66803,"ELEMENT_SET_NO":999,"REV_AT_EPOCH":1512,"BSTAR":0.0009348438,"MEAN_MOTION_DOT":0.00025539,"MEAN_MOTION_DDOT":0}]
